[{"OBJECT_NAME":"STARLINK-5690","OBJECT_ID":"2023-015AH","EPOCH":"2026-03-09T22:00:01.999584","MEAN_MOTION":15.14430175,"ECCENTRICITY":0.00019521,"INCLINATION":43.0002,"RA_OF_ASC_NODE":337.2039,"ARG_OF_PERICENTER":258.0458,"MEAN_ANOMALY":99.5541,"EPHEMERIS_TYPE":0,"CLASSIFICATION_TYPE":"U","NORAD_CAT_ID":55480,"ELEMENT_SET_NO":999,"REV_AT_EPOCH":577,"BSTAR":0.0026064123,"MEAN_MOTION_DOT":0.00048862,"MEAN_MOTION_DDOT":0},{"OBJECT_NAME":"OBJECT D","OBJECT_ID":"2024-205D","EPOCH":"2026-03-09T22:51:08.688096","MEAN_MOTION":15.16787304,"ECCENTRICITY":0.00131169,"INCLINATION":97.4171,"RA_OF_ASC_NODE":142.544,"ARG_OF_PERICENTER":49.0052,"MEAN_ANOMALY":311.2313,"EPHEMERIS_TYPE":0,"CLASSIFICATION_TYPE":"U","NORAD_CAT_ID":61897,"ELEMENT_SET_NO":999,"REV_AT_EPOCH":7323,"BSTAR":0.00043241464,"MEAN_MOTION_DOT":8.448e-5,"MEAN_MOTION_DDOT":0}]
